STARLINK-31838          
1 60130U 24118T   26068.15916788  .00005226  00000+0  18839-3 0  9999
2 60130  53.1616  29.2881 0001105 105.1855 254.9268 15.30209891 95611
2025-313BD              
1 67299U 25313BD  26068.62968741  .00081010  00000+0  27634-2 0  9995
2 67299  97.3970 145.2850 0007287 333.4514  26.6352 15.30002360 10838
